<?xml version="1.0" encoding="UTF-8"?>
<ndm xmlns:xsi="http://www.w3.org/2001/XMLSchema-instance" xsi:noNamespaceSchemaLocation="https://sanaregistry.org/r/ndmxml_unqualified/ndmxml-2.0.0-master-2.0.xsd">
<omm id="CCSDS_OMM_VERS" version="2.0">
<header><CREATION_DATE/><ORIGINATOR/></header><body><segment><metadata><OBJECT_NAME>QIANFAN-73</OBJECT_NAME><OBJECT_ID>2025-046A</OBJECT_ID><CENTER_NAME>EARTH</CENTER_NAME><REF_FRAME>TEME</REF_FRAME><TIME_SYSTEM>UTC</TIME_SYSTEM><MEAN_ELEMENT_THEORY>SGP4</MEAN_ELEMENT_THEORY></metadata><data><meanElements><EPOCH>2025-10-10T22:43:00.936768</EPOCH><MEAN_MOTION>13.50968638</MEAN_MOTION><ECCENTRICITY>.00130911</ECCENTRICITY><INCLINATION>88.9802</INCLINATION><RA_OF_ASC_NODE>326.5224</RA_OF_ASC_NODE><ARG_OF_PERICENTER>310.0547</ARG_OF_PERICENTER><MEAN_ANOMALY>49.9455</MEAN_ANOMALY></meanElements><tleParameters><EPHEMERIS_TYPE>0</EPHEMERIS_TYPE><CLASSIFICATION_TYPE>U</CLASSIFICATION_TYPE><NORAD_CAT_ID>63159</NORAD_CAT_ID><ELEMENT_SET_NO>999</ELEMENT_SET_NO><REV_AT_EPOCH>3893</REV_AT_EPOCH><BSTAR>.18439791E-3</BSTAR><MEAN_MOTION_DOT>.131E-5</MEAN_MOTION_DOT><MEAN_MOTION_DDOT>0</MEAN_MOTION_DDOT></tleParameters></data></segment></body></omm>
<omm id="CCSDS_OMM_VERS" version="2.0">
<header><CREATION_DATE/><ORIGINATOR/></header><body><segment><metadata><OBJECT_NAME>QIANFAN-74</OBJECT_NAME><OBJECT_ID>2025-046B</OBJECT_ID><CENTER_NAME>EARTH</CENTER_NAME><REF_FRAME>TEME</REF_FRAME><TIME_SYSTEM>UTC</TIME_SYSTEM><MEAN_ELEMENT_THEORY>SGP4</MEAN_ELEMENT_THEORY></metadata><data><meanElements><EPOCH>2025-10-10T22:19:18.763392</EPOCH><MEAN_MOTION>13.50970519</MEAN_MOTION><ECCENTRICITY>.00022124</ECCENTRICITY><INCLINATION>88.9802</INCLINATION><RA_OF_ASC_NODE>326.4124</RA_OF_ASC_NODE><ARG_OF_PERICENTER>101.2992</ARG_OF_PERICENTER><MEAN_ANOMALY>258.8408</MEAN_ANOMALY></meanElements><tleParameters><EPHEMERIS_TYPE>0</EPHEMERIS_TYPE><CLASSIFICATION_TYPE>U</CLASSIFICATION_TYPE><NORAD_CAT_ID>63160</NORAD_CAT_ID><ELEMENT_SET_NO>999</ELEMENT_SET_NO><REV_AT_EPOCH>3899</REV_AT_EPOCH><BSTAR>.19689342E-3</BSTAR><MEAN_MOTION_DOT>.139E-5</MEAN_MOTION_DOT><MEAN_MOTION_DDOT>0</MEAN_MOTION_DDOT></tleParameters></data></segment></body></omm>
<omm id="CCSDS_OMM_VERS" version="2.0">
<header><CREATION_DATE/><ORIGINATOR/></header><body><segment><metadata><OBJECT_NAME>QIANFAN-75</OBJECT_NAME><OBJECT_ID>2025-046C</OBJECT_ID><CENTER_NAME>EARTH</CENTER_NAME><REF_FRAME>TEME</REF_FRAME><TIME_SYSTEM>UTC</TIME_SYSTEM><MEAN_ELEMENT_THEORY>SGP4</MEAN_ELEMENT_THEORY></metadata><data><meanElements><EPOCH>2025-10-10T23:48:08.420832</EPOCH><MEAN_MOTION>13.50978022</MEAN_MOTION><ECCENTRICITY>.00142363</ECCENTRICITY><INCLINATION>88.9804</INCLINATION><RA_OF_ASC_NODE>326.6387</RA_OF_ASC_NODE><ARG_OF_PERICENTER>312.9282</ARG_OF_PERICENTER><MEAN_ANOMALY>47.0674</MEAN_ANOMALY></meanElements><tleParameters><EPHEMERIS_TYPE>0</EPHEMERIS_TYPE><CLASSIFICATION_TYPE>U</CLASSIFICATION_TYPE><NORAD_CAT_ID>63161</NORAD_CAT_ID><ELEMENT_SET_NO>999</ELEMENT_SET_NO><REV_AT_EPOCH>3887</REV_AT_EPOCH><BSTAR>.1058317E-3</BSTAR><MEAN_MOTION_DOT>.8E-6</MEAN_MOTION_DOT><MEAN_MOTION_DDOT>0</MEAN_MOTION_DDOT></tleParameters></data></segment></body></omm>
<omm id="CCSDS_OMM_VERS" version="2.0">
<header><CREATION_DATE/><ORIGINATOR/></header><body><segment><metadata><OBJECT_NAME>QIANFAN-76</OBJECT_NAME><OBJECT_ID>2025-046D</OBJECT_ID><CENTER_NAME>EARTH</CENTER_NAME><REF_FRAME>TEME</REF_FRAME><TIME_SYSTEM>UTC</TIME_SYSTEM><MEAN_ELEMENT_THEORY>SGP4</MEAN_ELEMENT_THEORY></metadata><data><meanElements><EPOCH>2025-10-10T23:42:17.056224</EPOCH><MEAN_MOTION>13.50971485</MEAN_MOTION><ECCENTRICITY>.00118213</ECCENTRICITY><INCLINATION>88.9798</INCLINATION><RA_OF_ASC_NODE>326.6200</RA_OF_ASC_NODE><ARG_OF_PERICENTER>314.5695</ARG_OF_PERICENTER><MEAN_ANOMALY>45.4490</MEAN_ANOMALY></meanElements><tleParameters><EPHEMERIS_TYPE>0</EPHEMERIS_TYPE><CLASSIFICATION_TYPE>U</CLASSIFICATION_TYPE><NORAD_CAT_ID>63162</NORAD_CAT_ID><ELEMENT_SET_NO>999</ELEMENT_SET_NO><REV_AT_EPOCH>3888</REV_AT_EPOCH><BSTAR>-.54187846E-4</BSTAR><MEAN_MOTION_DOT>-.23E-6</MEAN_MOTION_DOT><MEAN_MOTION_DDOT>0</MEAN_MOTION_DDOT></tleParameters></data></segment></body></omm>
<omm id="CCSDS_OMM_VERS" version="2.0">
<header><CREATION_DATE/><ORIGINATOR/></header><body><segment><metadata><OBJECT_NAME>QIANFAN-77</OBJECT_NAME><OBJECT_ID>2025-046E</OBJECT_ID><CENTER_NAME>EARTH</CENTER_NAME><REF_FRAME>TEME</REF_FRAME><TIME_SYSTEM>UTC</TIME_SYSTEM><MEAN_ELEMENT_THEORY>SGP4</MEAN_ELEMENT_THEORY></metadata><data><meanElements><EPOCH>2025-10-10T23:18:28.638720</EPOCH><MEAN_MOTION>13.96067709</MEAN_MOTION><ECCENTRICITY>.0012457</ECCENTRICITY><INCLINATION>88.9800</INCLINATION><RA_OF_ASC_NODE>325.1444</RA_OF_ASC_NODE><ARG_OF_PERICENTER>276.7170</ARG_OF_PERICENTER><MEAN_ANOMALY>83.2589</MEAN_ANOMALY></meanElements><tleParameters><EPHEMERIS_TYPE>0</EPHEMERIS_TYPE><CLASSIFICATION_TYPE>U</CLASSIFICATION_TYPE><NORAD_CAT_ID>63163</NORAD_CAT_ID><ELEMENT_SET_NO>999</ELEMENT_SET_NO><REV_AT_EPOCH>3969</REV_AT_EPOCH><BSTAR>.24364547E-3</BSTAR><MEAN_MOTION_DOT>.347E-5</MEAN_MOTION_DOT><MEAN_MOTION_DDOT>0</MEAN_MOTION_DDOT></tleParameters></data></segment></body></omm>
<omm id="CCSDS_OMM_VERS" version="2.0">
<header><CREATION_DATE/><ORIGINATOR/></header><body><segment><metadata><OBJECT_NAME>QIANFAN-78</OBJECT_NAME><OBJECT_ID>2025-046F</OBJECT_ID><CENTER_NAME>EARTH</CENTER_NAME><REF_FRAME>TEME</REF_FRAME><TIME_SYSTEM>UTC</TIME_SYSTEM><MEAN_ELEMENT_THEORY>SGP4</MEAN_ELEMENT_THEORY></metadata><data><meanElements><EPOCH>2025-10-10T22:54:55.215072</EPOCH><MEAN_MOTION>13.50970843</MEAN_MOTION><ECCENTRICITY>.00132494</ECCENTRICITY><INCLINATION>88.9803</INCLINATION><RA_OF_ASC_NODE>326.4881</RA_OF_ASC_NODE><ARG_OF_PERICENTER>316.6841</ARG_OF_PERICENTER><MEAN_ANOMALY>43.3268</MEAN_ANOMALY></meanElements><tleParameters><EPHEMERIS_TYPE>0</EPHEMERIS_TYPE><CLASSIFICATION_TYPE>U</CLASSIFICATION_TYPE><NORAD_CAT_ID>63164</NORAD_CAT_ID><ELEMENT_SET_NO>999</ELEMENT_SET_NO><REV_AT_EPOCH>3895</REV_AT_EPOCH><BSTAR>.17260066E-3</BSTAR><MEAN_MOTION_DOT>.123E-5</MEAN_MOTION_DOT><MEAN_MOTION_DDOT>0</MEAN_MOTION_DDOT></tleParameters></data></segment></body></omm>
<omm id="CCSDS_OMM_VERS" version="2.0">
<header><CREATION_DATE/><ORIGINATOR/></header><body><segment><metadata><OBJECT_NAME>QIANFAN-79</OBJECT_NAME><OBJECT_ID>2025-046G</OBJECT_ID><CENTER_NAME>EARTH</CENTER_NAME><REF_FRAME>TEME</REF_FRAME><TIME_SYSTEM>UTC</TIME_SYSTEM><MEAN_ELEMENT_THEORY>SGP4</MEAN_ELEMENT_THEORY></metadata><data><meanElements><EPOCH>2025-10-10T23:36:12.898368</EPOCH><MEAN_MOTION>13.50970013</MEAN_MOTION><ECCENTRICITY>.00129</ECCENTRICITY><INCLINATION>88.9806</INCLINATION><RA_OF_ASC_NODE>326.5902</RA_OF_ASC_NODE><ARG_OF_PERICENTER>314.7297</ARG_OF_PERICENTER><MEAN_ANOMALY>45.2803</MEAN_ANOMALY></meanElements><tleParameters><EPHEMERIS_TYPE>0</EPHEMERIS_TYPE><CLASSIFICATION_TYPE>U</CLASSIFICATION_TYPE><NORAD_CAT_ID>63165</NORAD_CAT_ID><ELEMENT_SET_NO>999</ELEMENT_SET_NO><REV_AT_EPOCH>3890</REV_AT_EPOCH><BSTAR>.19631194E-3</BSTAR><MEAN_MOTION_DOT>.139E-5</MEAN_MOTION_DOT><MEAN_MOTION_DDOT>0</MEAN_MOTION_DDOT></tleParameters></data></segment></body></omm>
<omm id="CCSDS_OMM_VERS" version="2.0">
<header><CREATION_DATE/><ORIGINATOR/></header><body><segment><metadata><OBJECT_NAME>QIANFAN-80</OBJECT_NAME><OBJECT_ID>2025-046H</OBJECT_ID><CENTER_NAME>EARTH</CENTER_NAME><REF_FRAME>TEME</REF_FRAME><TIME_SYSTEM>UTC</TIME_SYSTEM><MEAN_ELEMENT_THEORY>SGP4</MEAN_ELEMENT_THEORY></metadata><data><meanElements><EPOCH>2025-10-10T22:13:25.828896</EPOCH><MEAN_MOTION>13.50970497</MEAN_MOTION><ECCENTRICITY>.00119907</ECCENTRICITY><INCLINATION>88.9803</INCLINATION><RA_OF_ASC_NODE>326.3047</RA_OF_ASC_NODE><ARG_OF_PERICENTER>320.4553</ARG_OF_PERICENTER><MEAN_ANOMALY>39.5722</MEAN_ANOMALY></meanElements><tleParameters><EPHEMERIS_TYPE>0</EPHEMERIS_TYPE><CLASSIFICATION_TYPE>U</CLASSIFICATION_TYPE><NORAD_CAT_ID>63166</NORAD_CAT_ID><ELEMENT_SET_NO>999</ELEMENT_SET_NO><REV_AT_EPOCH>3905</REV_AT_EPOCH><BSTAR>.24608292E-3</BSTAR><MEAN_MOTION_DOT>.171E-5</MEAN_MOTION_DOT><MEAN_MOTION_DDOT>0</MEAN_MOTION_DDOT></tleParameters></data></segment></body></omm>

</ndm>
