QIANFAN-73              
1 63159U 25046A   25283.94653862  .00000131  00000+0  18440-3 0  9998
2 63159  88.9802 326.5224 0013091 310.0547  49.9455 13.50968638 38937
QIANFAN-74              
1 63160U 25046B   25283.93007828  .00000139  00000+0  19689-3 0  9998
2 63160  88.9802 326.4124 0002212 101.2992 258.8408 13.50970519 38990
QIANFAN-75              
1 63161U 25046C   25283.99176413  .00000080  00000+0  10583-3 0  9991
2 63161  88.9804 326.6387 0014236 312.9282  47.0674 13.50978022 38875
QIANFAN-76              
1 63162U 25046D   25283.98769741 -.00000023  00000+0 -54188-4 0  9992
2 63162  88.9798 326.6200 0011821 314.5695  45.4490 13.50971485 38880
QIANFAN-77              
1 63163U 25046E   25283.97116480  .00000347  00000+0  24365-3 0  9998
2 63163  88.9800 325.1444 0012457 276.7170  83.2589 13.96067709 39696
QIANFAN-78              
1 63164U 25046F   25283.95480573  .00000123  00000+0  17260-3 0  9992
2 63164  88.9803 326.4881 0013249 316.6841  43.3268 13.50970843 38959
QIANFAN-79              
1 63165U 25046G   25283.98348262  .00000139  00000+0  19631-3 0  9995
2 63165  88.9806 326.5902 0012900 314.7297  45.2803 13.50970013 38905
QIANFAN-80              
1 63166U 25046H   25283.92599339  .00000171  00000+0  24608-3 0  9999
2 63166  88.9803 326.3047 0011990 320.4553  39.5722 13.50970497 39057
